ONEWEB-0718             
1 56081U 23043AM  26020.26017654  .00000167  00000+0  41031-3 0  9998
2 56081  87.9005 288.7351 0001475  96.7116 263.4182 13.15547862136987
ONEWEB-0561             
1 56710U 23068A   26020.24476218  .00000080  00000+0  16418-3 0  9992
2 56710  87.9227 303.9639 0001898  63.1306 297.0022 13.20773287129974
ONEWEB-0668             
1 56711U 23068B   26020.31084251  .00000115  00000+0  26608-3 0  9994
2 56711  87.9034 258.2021 0001718  97.6188 262.5138 13.16595334132327
ONEWEB-0676             
1 56712U 23068C   26020.16676352  .00000074  00000+0  15997-3 0  9990
2 56712  87.9022 258.2486 0001748  73.6783 286.4541 13.16594043132226
ONEWEB-0677             
1 56713U 23068D   26020.30947092  .00000041  00000+0  69690-4 0  9993
2 56713  87.9236 303.9385 0001877  77.9350 282.1993 13.20772295130280
ONEWEB-0678             
1 56714U 23068E   26020.22848273 -.00000110  00000+0 -32727-3 0  9995
2 56714  87.9013 288.7197 0001453  64.5597 295.5684 13.15549857129834
ONEWEB-0679             
1 56715U 23068F   26020.12560675  .00000155  00000+0  37222-3 0  9994
2 56715  87.9030 258.2394 0002009  85.7503 274.3858 13.16595328132247
ONEWEB-0680             
1 56716U 23068G   26020.18590499  .00000041  00000+0  67395-4 0  9997
2 56716  87.9220 273.4850 0001958  93.0295 267.1063 13.21825966131547
ONEWEB-0681             
1 56717U 23068H   26020.24102483  .00000129  00000+0  27980-3 0  9999
2 56717  87.9209 273.4869 0002392  59.6181 300.5189 13.21824956131549
ONEWEB-0682             
1 56718U 23068J   26020.25461674  .00000171  00000+0  41905-3 0  9991
2 56718  87.9002 288.7256 0001902  88.5905 271.5444 13.15551056130003
ONEWEB-0683             
1 56719U 23068K   26020.27602424  .00000196  00000+0  48527-3 0  9998
2 56719  87.9014 288.7095 0001658  83.7216 276.4104 13.15549504129974
ONEWEB-0684             
1 56720U 23068L   26020.28393185  .00000098  00000+0  22554-3 0  9995
2 56720  87.9012 288.7015 0000466  16.5830 343.5315 13.15547000129809
ONEWEB-0686             
1 56721U 23068M   26020.08911826  .00000115  00000+0  26536-3 0  9996
2 56721  87.9014 258.2940 0001314  94.0617 266.0664 13.17180435132221
ONEWEB-0694             
1 56722U 23068N   26020.09234584  .00000110  00000+0  25512-3 0  9995
2 56722  87.9037 258.2285 0001684  94.8466 265.2857 13.16593062132283
ONEWEB-0696             
1 56723U 23068P   26020.16508391 -.00000163  00000+0 -46699-3 0  9993
2 56723  87.9006 288.7752 0000644  61.2270 298.8925 13.15552581129906
ONEWEB-0703             
1 56724U 23068Q   26020.25067447  .00000158  00000+0  38485-3 0  9992
2 56724  87.9001 288.7389 0001662  38.6444 321.4805 13.15548880129806
ONEWEB-0721             
1 56725U 23068R   26020.30127220  .00000050  00000+0  85598-4 0  9994
2 56725  86.6822 132.7114 0001577 106.8868 253.2439 13.22457409138394
