[{"OBJECT_NAME":"ONEWEB-0718","OBJECT_ID":"2023-043AM","EPOCH":"2026-01-20T06:14:39.253056","MEAN_MOTION":13.15547862,"ECCENTRICITY":0.00014753,"INCLINATION":87.9005,"RA_OF_ASC_NODE":288.7351,"ARG_OF_PERICENTER":96.7116,"MEAN_ANOMALY":263.4182,"EPHEMERIS_TYPE":0,"CLASSIFICATION_TYPE":"U","NORAD_CAT_ID":56081,"ELEMENT_SET_NO":999,"REV_AT_EPOCH":13698,"BSTAR":0.00041030907,"MEAN_MOTION_DOT":1.67e-6,"MEAN_MOTION_DDOT":0},{"OBJECT_NAME":"ONEWEB-0561","OBJECT_ID":"2023-068A","EPOCH":"2026-01-20T05:52:27.452352","MEAN_MOTION":13.20773287,"ECCENTRICITY":0.00018984,"INCLINATION":87.9227,"RA_OF_ASC_NODE":303.9639,"ARG_OF_PERICENTER":63.1306,"MEAN_ANOMALY":297.0022,"EPHEMERIS_TYPE":0,"CLASSIFICATION_TYPE":"U","NORAD_CAT_ID":56710,"ELEMENT_SET_NO":999,"REV_AT_EPOCH":12997,"BSTAR":0.00016418038,"MEAN_MOTION_DOT":8.0e-7,"MEAN_MOTION_DDOT":0},{"OBJECT_NAME":"ONEWEB-0668","OBJECT_ID":"2023-068B","EPOCH":"2026-01-20T07:27:36.792864","MEAN_MOTION":13.16595334,"ECCENTRICITY":0.00017187,"INCLINATION":87.9034,"RA_OF_ASC_NODE":258.2021,"ARG_OF_PERICENTER":97.6188,"MEAN_ANOMALY":262.5138,"EPHEMERIS_TYPE":0,"CLASSIFICATION_TYPE":"U","NORAD_CAT_ID":56711,"ELEMENT_SET_NO":999,"REV_AT_EPOCH":13232,"BSTAR":0.00026607659,"MEAN_MOTION_DOT":1.15e-6,"MEAN_MOTION_DDOT":0},{"OBJECT_NAME":"ONEWEB-0676","OBJECT_ID":"2023-068C","EPOCH":"2026-01-20T04:00:08.368128","MEAN_MOTION":13.16594043,"ECCENTRICITY":0.00017485,"INCLINATION":87.9022,"RA_OF_ASC_NODE":258.2486,"ARG_OF_PERICENTER":73.6783,"MEAN_ANOMALY":286.4541,"EPHEMERIS_TYPE":0,"CLASSIFICATION_TYPE":"U","NORAD_CAT_ID":56712,"ELEMENT_SET_NO":999,"REV_AT_EPOCH":13222,"BSTAR":0.0001599704,"MEAN_MOTION_DOT":7.4e-7,"MEAN_MOTION_DDOT":0},{"OBJECT_NAME":"ONEWEB-0677","OBJECT_ID":"2023-068D","EPOCH":"2026-01-20T07:25:38.287488","MEAN_MOTION":13.20772295,"ECCENTRICITY":0.00018777,"INCLINATION":87.9236,"RA_OF_ASC_NODE":303.9385,"ARG_OF_PERICENTER":77.935,"MEAN_ANOMALY":282.1993,"EPHEMERIS_TYPE":0,"CLASSIFICATION_TYPE":"U","NORAD_CAT_ID":56713,"ELEMENT_SET_NO":999,"REV_AT_EPOCH":13028,"BSTAR":6.9690102e-5,"MEAN_MOTION_DOT":4.1e-7,"MEAN_MOTION_DDOT":0},{"OBJECT_NAME":"ONEWEB-0678","OBJECT_ID":"2023-068E","EPOCH":"2026-01-20T05:29:00.907872","MEAN_MOTION":13.15549857,"ECCENTRICITY":0.00014532,"INCLINATION":87.9013,"RA_OF_ASC_NODE":288.7197,"ARG_OF_PERICENTER":64.5597,"MEAN_ANOMALY":295.5684,"EPHEMERIS_TYPE":0,"CLASSIFICATION_TYPE":"U","NORAD_CAT_ID":56714,"ELEMENT_SET_NO":999,"REV_AT_EPOCH":12983,"BSTAR":-0.00032726989,"MEAN_MOTION_DOT":-1.1e-6,"MEAN_MOTION_DDOT":0},{"OBJECT_NAME":"ONEWEB-0679","OBJECT_ID":"2023-068F","EPOCH":"2026-01-20T03:00:52.423200","MEAN_MOTION":13.16595328,"ECCENTRICITY":0.00020091,"INCLINATION":87.903,"RA_OF_ASC_NODE":258.2394,"ARG_OF_PERICENTER":85.7503,"MEAN_ANOMALY":274.3858,"EPHEMERIS_TYPE":0,"CLASSIFICATION_TYPE":"U","NORAD_CAT_ID":56715,"ELEMENT_SET_NO":999,"REV_AT_EPOCH":13224,"BSTAR":0.00037221637,"MEAN_MOTION_DOT":1.55e-6,"MEAN_MOTION_DDOT":0},{"OBJECT_NAME":"ONEWEB-0680","OBJECT_ID":"2023-068G","EPOCH":"2026-01-20T04:27:42.191136","MEAN_MOTION":13.21825966,"ECCENTRICITY":0.00019584,"INCLINATION":87.922,"RA_OF_ASC_NODE":273.485,"ARG_OF_PERICENTER":93.0295,"MEAN_ANOMALY":267.1063,"EPHEMERIS_TYPE":0,"CLASSIFICATION_TYPE":"U","NORAD_CAT_ID":56716,"ELEMENT_SET_NO":999,"REV_AT_EPOCH":13154,"BSTAR":6.7394754e-5,"MEAN_MOTION_DOT":4.1e-7,"MEAN_MOTION_DDOT":0},{"OBJECT_NAME":"ONEWEB-0681","OBJECT_ID":"2023-068H","EPOCH":"2026-01-20T05:47:04.545312","MEAN_MOTION":13.21824956,"ECCENTRICITY":0.00023924,"INCLINATION":87.9209,"RA_OF_ASC_NODE":273.4869,"ARG_OF_PERICENTER":59.6181,"MEAN_ANOMALY":300.5189,"EPHEMERIS_TYPE":0,"CLASSIFICATION_TYPE":"U","NORAD_CAT_ID":56717,"ELEMENT_SET_NO":999,"REV_AT_EPOCH":13154,"BSTAR":0.00027979507,"MEAN_MOTION_DOT":1.29e-6,"MEAN_MOTION_DDOT":0},{"OBJECT_NAME":"ONEWEB-0682","OBJECT_ID":"2023-068J","EPOCH":"2026-01-20T06:06:38.886336","MEAN_MOTION":13.15551056,"ECCENTRICITY":0.00019028,"INCLINATION":87.9002,"RA_OF_ASC_NODE":288.7256,"ARG_OF_PERICENTER":88.5905,"MEAN_ANOMALY":271.5444,"EPHEMERIS_TYPE":0,"CLASSIFICATION_TYPE":"U","NORAD_CAT_ID":56718,"ELEMENT_SET_NO":999,"REV_AT_EPOCH":13000,"BSTAR":0.00041905372,"MEAN_MOTION_DOT":1.71e-6,"MEAN_MOTION_DDOT":0},{"OBJECT_NAME":"ONEWEB-0683","OBJECT_ID":"2023-068K","EPOCH":"2026-01-20T06:37:28.494336","MEAN_MOTION":13.15549504,"ECCENTRICITY":0.00016584,"INCLINATION":87.9014,"RA_OF_ASC_NODE":288.7095,"ARG_OF_PERICENTER":83.7216,"MEAN_ANOMALY":276.4104,"EPHEMERIS_TYPE":0,"CLASSIFICATION_TYPE":"U","NORAD_CAT_ID":56719,"ELEMENT_SET_NO":999,"REV_AT_EPOCH":12997,"BSTAR":0.00048527229,"MEAN_MOTION_DOT":1.96e-6,"MEAN_MOTION_DDOT":0},{"OBJECT_NAME":"ONEWEB-0684","OBJECT_ID":"2023-068L","EPOCH":"2026-01-20T06:48:51.711840","MEAN_MOTION":13.15547,"ECCENTRICITY":4.663e-5,"INCLINATION":87.9012,"RA_OF_ASC_NODE":288.7015,"ARG_OF_PERICENTER":16.583,"MEAN_ANOMALY":343.5315,"EPHEMERIS_TYPE":0,"CLASSIFICATION_TYPE":"U","NORAD_CAT_ID":56720,"ELEMENT_SET_NO":999,"REV_AT_EPOCH":12980,"BSTAR":0.00022553653,"MEAN_MOTION_DOT":9.8e-7,"MEAN_MOTION_DDOT":0},{"OBJECT_NAME":"ONEWEB-0686","OBJECT_ID":"2023-068M","EPOCH":"2026-01-20T02:08:19.817664","MEAN_MOTION":13.17180435,"ECCENTRICITY":0.00013149,"INCLINATION":87.9014,"RA_OF_ASC_NODE":258.294,"ARG_OF_PERICENTER":94.0617,"MEAN_ANOMALY":266.0664,"EPHEMERIS_TYPE":0,"CLASSIFICATION_TYPE":"U","NORAD_CAT_ID":56721,"ELEMENT_SET_NO":999,"REV_AT_EPOCH":13222,"BSTAR":0.0002653618,"MEAN_MOTION_DOT":1.15e-6,"MEAN_MOTION_DDOT":0},{"OBJECT_NAME":"ONEWEB-0694","OBJECT_ID":"2023-068N","EPOCH":"2026-01-20T02:12:58.680576","MEAN_MOTION":13.16593062,"ECCENTRICITY":0.00016843,"INCLINATION":87.9037,"RA_OF_ASC_NODE":258.2285,"ARG_OF_PERICENTER":94.8466,"MEAN_ANOMALY":265.2857,"EPHEMERIS_TYPE":0,"CLASSIFICATION_TYPE":"U","NORAD_CAT_ID":56722,"ELEMENT_SET_NO":999,"REV_AT_EPOCH":13228,"BSTAR":0.00025511746,"MEAN_MOTION_DOT":1.1e-6,"MEAN_MOTION_DDOT":0},{"OBJECT_NAME":"ONEWEB-0696","OBJECT_ID":"2023-068P","EPOCH":"2026-01-20T03:57:43.249824","MEAN_MOTION":13.15552581,"ECCENTRICITY":6.447e-5,"INCLINATION":87.9006,"RA_OF_ASC_NODE":288.7752,"ARG_OF_PERICENTER":61.227,"MEAN_ANOMALY":298.8925,"EPHEMERIS_TYPE":0,"CLASSIFICATION_TYPE":"U","NORAD_CAT_ID":56723,"ELEMENT_SET_NO":999,"REV_AT_EPOCH":12990,"BSTAR":-0.00046699288,"MEAN_MOTION_DOT":-1.63e-6,"MEAN_MOTION_DDOT":0},{"OBJECT_NAME":"ONEWEB-0703","OBJECT_ID":"2023-068Q","EPOCH":"2026-01-20T06:00:58.274208","MEAN_MOTION":13.1554888,"ECCENTRICITY":0.0001662,"INCLINATION":87.9001,"RA_OF_ASC_NODE":288.7389,"ARG_OF_PERICENTER":38.6444,"MEAN_ANOMALY":321.4805,"EPHEMERIS_TYPE":0,"CLASSIFICATION_TYPE":"U","NORAD_CAT_ID":56724,"ELEMENT_SET_NO":999,"REV_AT_EPOCH":12980,"BSTAR":0.00038484839,"MEAN_MOTION_DOT":1.58e-6,"MEAN_MOTION_DDOT":0},{"OBJECT_NAME":"ONEWEB-0721","OBJECT_ID":"2023-068R","EPOCH":"2026-01-20T07:13:49.918080","MEAN_MOTION":13.22457409,"ECCENTRICITY":0.00015774,"INCLINATION":86.6822,"RA_OF_ASC_NODE":132.7114,"ARG_OF_PERICENTER":106.8868,"MEAN_ANOMALY":253.2439,"EPHEMERIS_TYPE":0,"CLASSIFICATION_TYPE":"U","NORAD_CAT_ID":56725,"ELEMENT_SET_NO":999,"REV_AT_EPOCH":13839,"BSTAR":8.5597599e-5,"MEAN_MOTION_DOT":5.0e-7,"MEAN_MOTION_DDOT":0}]
